[{"OBJECT_NAME":"PACE-1","OBJECT_ID":"2021-059AG","EPOCH":"2026-03-09T10:52:20.672256","MEAN_MOTION":15.66489825,"ECCENTRICITY":0.00026713,"INCLINATION":97.6852,"RA_OF_ASC_NODE":256.4197,"ARG_OF_PERICENTER":313.2963,"MEAN_ANOMALY":46.8073,"EPHEMERIS_TYPE":0,"CLASSIFICATION_TYPE":"U","NORAD_CAT_ID":48909,"ELEMENT_SET_NO":999,"REV_AT_EPOCH":26212,"BSTAR":0.00052434786,"MEAN_MOTION_DOT":0.000547,"MEAN_MOTION_DDOT":0},{"OBJECT_NAME":"CUSAT 1","OBJECT_ID":"2013-055B","EPOCH":"2026-03-09T21:41:15.188064","MEAN_MOTION":15.74002725,"ECCENTRICITY":0.01371406,"INCLINATION":80.9316,"RA_OF_ASC_NODE":114.3179,"ARG_OF_PERICENTER":168.8133,"MEAN_ANOMALY":191.6233,"EPHEMERIS_TYPE":0,"CLASSIFICATION_TYPE":"U","NORAD_CAT_ID":39266,"ELEMENT_SET_NO":999,"REV_AT_EPOCH":65726,"BSTAR":0.00064915357,"MEAN_MOTION_DOT":0.00168895,"MEAN_MOTION_DDOT":7.654948e-6}]
